FENGYUN 1C DEB          
1 30642U 99025ANZ 17345.77097887  .00003373  00000-0  64867-3 0  9993
2 30642  99.0125 264.2500 0060871  82.1819 335.3500 14.63203468571394
